TEVEL2-6                
1 63215U 25052F   26068.64958975  .00021046  00000+0  70909-3 0  9996
2 63215  97.4016 325.0381 0004769  95.6604 264.5181 15.30760889 54861
STARLINK-34168          
1 64079U 25107R   26068.42669957  .00039647  00000+0  14423-2 0  9995
2 64079  43.0020 202.7402 0001303 242.1444 117.9276 15.27585044 46084
